STARLINK-32228          
1 60445U 24144W   26068.68742168 -.00000690  00000+0 -11178-4 0  9996
2 60445  53.1607 216.7931 0001156  99.2553 260.8579 15.30176905 89357
GLOBAL-34               
1 68098U 26043A   26068.47466435  .00014018  00000+0  45822-3 0  9994
2 68098  42.0215  76.7399 0006884 289.2632  70.7460 15.31488019   538
